NORAD_CAT_ID,OBJECT_NAME,OBJECT_TYPE,EPOCH,MEAN_MOTION,ECCENTRICITY,INCLINATION,RA_OF_ASC_NODE,ARG_OF_PERICENTER,MEAN_ANOMALY,BSTAR,MEAN_MOTION_DOT,MEAN_MOTION_DDOT,TLE_LINE0,TLE_LINE1,TLE_LINE2,SEMIMAJOR_AXIS,PERIOD,APOGEE,PERIGEE,DECAYED
55631.0,STARLINK-5558,PAYLOAD,2024-04-10 04:49:48,14.9833582,0.0003335,70.0001,165.5051,269.9153,90.1624,2.151e-05,1.64e-06,0.0,0 STARLINK-5558,1 55631U 23021D   24101.20125006  .00000164  00000-0  21510-4 0  9996,2 55631  70.0001 165.5051 0003335 269.9153  90.1624 14.98335820 63376,6950.175,96.107,574.358,569.722,0.0
55631.0,STARLINK-5558,PAYLOAD,2024-04-10 11:14:20,14.98336509,0.0003244,70.0001,164.8319,268.7584,91.3203,6.1352e-05,6.39e-06,0.0,0 STARLINK-5558,1 55631U 23021D   24101.46828743  .00000639  00000-0  61352-4 0  9997,2 55631  70.0001 164.8319 0003244 268.7584  91.3203 14.98336509 63718,6950.173,96.107,574.292,569.783,0.0
55631.0,STARLINK-5558,PAYLOAD,2024-04-10 20:51:08,14.98332311,0.0003227,70.0002,163.8222,268.4196,91.6594,-1.5725e-05,-2.81e-06,0.0,0 STARLINK-5558,1 55631U 23021D   24101.86885035 -.00000281  00000-0 -15725-4 0  9996,2 55631  70.0002 163.8222 0003227 268.4196  91.6594 14.98332311 63777,6950.186,96.107,574.294,569.808,0.0
55631.0,STARLINK-5558,PAYLOAD,2024-04-11 04:51:49,14.98334118,0.0003048,70.0005,162.9814,270.2862,89.7948,-0.00011084,-1.415e-05,0.0,0 STARLINK-5558,1 55631U 23021D   24102.20265230 -.00001415  00000-0 -11084-3 0  9997,2 55631  70.0005 162.9814 0003048 270.2862  89.7948 14.98334118 63520,6950.18,96.107,574.164,569.927,0.0
55631.0,STARLINK-5558,PAYLOAD,2024-04-11 12:52:29,14.98327239,0.0003195,70.0002,162.1396,267.7965,92.2828,-3.9939e-05,-5.7e-06,0.0,0 STARLINK-5558,1 55631U 23021D   24102.53645431 -.00000570  00000-0 -39939-4 0  9999,2 55631  70.0002 162.1396 0003195 267.7965  92.2828 14.98327239 63872,6950.201,96.107,574.287,569.846,0.0
55631.0,STARLINK-5558,PAYLOAD,2024-04-11 20:53:09,14.98328779,0.000319,70.0002,161.2982,267.7507,92.3287,-6.1816e-05,-8.31e-06,0.0,0 STARLINK-5558,1 55631U 23021D   24102.87025412 -.00000831  00000-0 -61816-4 0  9996,2 55631  70.0002 161.2982 0003190 267.7507  92.3287 14.98328779 63926,6950.197,96.107,574.279,569.845,0.0
55631.0,STARLINK-5558,PAYLOAD,2024-04-12 04:53:50,14.9833183,0.0003232,69.9999,160.4562,268.7845,91.2943,-4.984e-05,-6.88e-06,0.0,0 STARLINK-5558,1 55631U 23021D   24103.20405169 -.00000688  00000-0 -49840-4 0  9998,2 55631  69.9999 160.4562 0003232 268.7845  91.2943 14.98331830 63677,6950.187,96.107,574.299,569.806,0.0
55631.0,STARLINK-5558,PAYLOAD,2024-04-12 12:54:30,14.98330722,0.0003258,70.0,159.6147,268.2868,91.7917,-5.2987e-05,-7.25e-06,0.0,0 STARLINK-5558,1 55631U 23021D   24103.53785222 -.00000725  00000-0 -52987-4 0  9993,2 55631  70.0000 159.6147 0003258 268.2868  91.7917 14.98330722 64025,6950.191,96.107,574.32,569.791,0.0
55631.0,STARLINK-5558,PAYLOAD,2024-04-13 04:55:51,14.98322468,0.0003289,69.9998,157.931,270.0395,90.0387,-4.0309e-06,-1.41e-06,0.0,0 STARLINK-5558,1 55631U 23021D   24104.20545724 -.00000141  00000-0 -40309-5 0  9997,2 55631  69.9998 157.9310 0003289 270.0395  90.0387 14.98322468 63829,6950.216,96.107,574.367,569.795,0.0
55631.0,STARLINK-5558,PAYLOAD,2024-04-13 12:56:31,14.98322967,0.0003295,69.9997,157.0895,269.1691,90.909,-4.8332e-06,-1.51e-06,0.0,0 STARLINK-5558,1 55631U 23021D   24104.53925841 -.00000151  00000-0 -48332-5 0  9990,2 55631  69.9997 157.0895 0003295 269.1691  90.9090 14.98322967 64175,6950.215,96.107,574.37,569.79,0.0
55631.0,STARLINK-5558,PAYLOAD,2024-04-14 04:57:52,14.98331278,0.0003362,69.9995,155.4064,269.1711,90.9063,6.3289e-05,6.62e-06,0.0,0 STARLINK-5558,1 55631U 23021D   24105.20685202  .00000662  00000-0  63289-4 0  9991,2 55631  69.9995 155.4064 0003362 269.1711  90.9063 14.98331278 63973,6950.189,96.107,574.391,569.717,0.0
55631.0,STARLINK-5558,PAYLOAD,2024-04-14 11:22:23,14.98360543,0.0003418,69.9998,154.7335,264.7492,95.3277,-0.00035901,-4.378e-05,0.0,0 STARLINK-5558,1 55631U 23021D   24105.47388303 -.00004378  00000-0 -35901-3 0  9991,2 55631  69.9998 154.7335 0003418 264.7492  95.3277 14.98360543 64017,6950.098,96.105,574.339,569.588,0.0
55631.0,STARLINK-5558,PAYLOAD,2024-04-14 12:58:32,14.98335049,0.000326,69.9998,154.5652,265.8648,94.2138,9.2394e-05,1.01e-05,0.0,0 STARLINK-5558,1 55631U 23021D   24105.54064818  .00001010  00000-0  92394-4 0  9999,2 55631  69.9998 154.5652 0003260 265.8648  94.2138 14.98335049 64025,6950.177,96.107,574.308,569.777,0.0
55631.0,STARLINK-5558,PAYLOAD,2024-04-15 13:00:33,14.98328081,0.0002956,70.0004,152.042,258.8835,101.1992,8.1963e-05,8.85e-06,0.0,0 STARLINK-5558,1 55631U 23021D   24106.54205145  .00000885  00000-0  81963-4 0  9999,2 55631  70.0004 152.0420 0002956 258.8835 101.1992 14.98328081 64173,6950.199,96.107,574.118,570.009,0.0
55631.0,STARLINK-5558,PAYLOAD,2024-04-16 13:02:33,14.98335526,0.000319,70.0001,149.5154,270.8943,89.1851,-1.1663e-05,-2.32e-06,0.0,0 STARLINK-5558,1 55631U 23021D   24107.54344826 -.00000232  00000-0 -11663-4 0  9998,2 55631  70.0001 149.5154 0003190 270.8943  89.1851 14.98335526 64328,6950.176,96.107,574.258,569.824,0.0
55631.0,STARLINK-5558,PAYLOAD,2024-04-17 11:28:27,14.98328031,0.0003009,69.9999,147.1601,266.9606,93.1209,-4.3854e-05,-6.16e-06,0.0,0 STARLINK-5558,1 55631U 23021D   24108.47809344 -.00000616  00000-0 -43854-4 0  9995,2 55631  69.9999 147.1601 0003009 266.9606  93.1209 14.98328031 64463,6950.199,96.107,574.155,569.973,0.0
55631.0,STARLINK-5558,PAYLOAD,2024-04-18 11:30:28,14.98321488,0.0002961,69.9998,144.6349,267.171,92.911,-6.7812e-05,-9.02e-06,0.0,0 STARLINK-5558,1 55631U 23021D   24109.47950158 -.00000902  00000-0 -67812-4 0  9994,2 55631  69.9998 144.6349 0002961 267.1710  92.9110 14.98321488 64612,6950.219,96.108,574.142,570.026,0.0
55631.0,STARLINK-5558,PAYLOAD,2024-04-19 05:07:56,14.98330717,0.0003275,69.9988,142.7816,269.7709,90.3075,6.0573e-05,6.3e-06,0.0,0 STARLINK-5558,1 55631U 23021D   24110.21385328  .00000630  00000-0  60573-4 0  9992,2 55631  69.9988 142.7816 0003275 269.7709  90.3075 14.98330717 64723,6950.191,96.107,574.332,569.779,0.0
55631.0,STARLINK-5558,PAYLOAD,2024-04-19 11:32:29,14.98314779,0.0003158,69.9991,142.1082,268.3189,91.7608,0.00039365,4.605e-05,0.0,0 STARLINK-5558,1 55631U 23021D   24110.48089500  .00004605  00000-0  39365-3 0  9994,2 55631  69.9991 142.1082 0003158 268.3189  91.7608 14.98314779 65068,6950.24,96.108,574.3,569.91,0.0
55631.0,STARLINK-5558,PAYLOAD,2024-04-20 05:09:57,14.98331022,0.0003186,69.9991,140.2566,268.2183,91.8611,0.00013038,1.463e-05,0.0,0 STARLINK-5558,1 55631U 23021D   24111.21524978  .00001463  00000-0  13038-3 0  9997,2 55631  69.9991 140.2566 0003186 268.2183  91.8611 14.98331022 64871,6950.19,96.107,574.269,569.84,0.0
55631.0,STARLINK-5558,PAYLOAD,2024-04-20 11:34:29,14.98334159,0.000295,69.9997,139.5842,259.9758,100.1069,0.00013836,1.558e-05,0.0,0 STARLINK-5558,1 55631U 23021D   24111.48228703  .00001558  00000-0  13836-3 0  9994,2 55631  69.9997 139.5842 0002950 259.9758 100.1069 14.98334159 65212,6950.18,96.107,574.095,569.995,0.0
55631.0,STARLINK-5558,PAYLOAD,2024-04-21 05:11:59,14.98322834,0.0003165,69.9994,137.7346,267.5045,92.5752,-0.00010322,-1.324e-05,0.0,0 STARLINK-5558,1 55631U 23021D   24112.21666156 -.00001324  00000-0 -10322-3 0  9994,2 55631  69.9994 137.7346 0003165 267.5045  92.5752 14.98322834 65020,6950.215,96.107,574.28,569.88,0.0
55631.0,STARLINK-5558,PAYLOAD,2024-04-21 11:36:32,14.98320797,0.0003537,69.9985,137.0601,272.3295,87.7459,-0.00016623,-2.076e-05,0.0,0 STARLINK-5558,1 55631U 23021D   24112.48370585 -.00002076  00000-0 -16623-3 0  9996,2 55631  69.9985 137.0601 0003537 272.3295  87.7459 14.98320797 65364,6950.221,96.108,574.545,569.628,0.0
55631.0,STARLINK-5558,PAYLOAD,2024-04-22 05:14:00,14.98326079,0.0003467,69.9984,135.2076,270.9791,89.097,-0.00010358,-1.329e-05,0.0,0 STARLINK-5558,1 55631U 23021D   24113.21806335 -.00001329  00000-0 -10358-3 0  9994,2 55631  69.9984 135.2076 0003467 270.9791  89.0970 14.98326079 65177,6950.205,96.107,574.48,569.66,0.0
55631.0,STARLINK-5558,PAYLOAD,2024-04-22 10:02:24,14.9832839,0.0003203,69.999,134.7004,276.1505,83.9289,-8.0001e-05,-1.047e-05,0.0,0 STARLINK-5558,1 55631U 23021D   24113.41834263 -.00001047  00000-0 -80001-4 0  9997,2 55631  69.9990 134.7004 0003203 276.1505  83.9289 14.98328390 65509,6950.198,96.107,574.289,569.837,0.0
55631.0,STARLINK-5558,PAYLOAD,2024-04-22 11:38:32,14.9832936,0.0003262,69.9985,134.5338,269.0769,91.0016,-4.955e-05,-6.84e-06,0.0,0 STARLINK-5558,1 55631U 23021D   24113.48510033 -.00000684  00000-0 -49550-4 0  9990,2 55631  69.9985 134.5338 0003262 269.0769  91.0016 14.98329360 65516,6950.195,96.107,574.327,569.793,0.0
55631.0,STARLINK-5558,PAYLOAD,2024-04-23 05:16:01,14.98325431,0.0003466,69.9984,132.6819,274.2136,85.8627,0.00018963,2.17e-05,0.0,0 STARLINK-5558,1 55631U 23021D   24114.21945755  .00002170  00000-0  18963-3 0  9998,2 55631  69.9984 132.6819 0003466 274.2136  85.8627 14.98325431 65323,6950.207,96.107,574.481,569.663,0.0
55631.0,STARLINK-5558,PAYLOAD,2024-04-23 10:04:25,14.98321546,0.0002973,69.9985,132.1766,268.9326,91.1492,0.00029181,3.39e-05,0.0,0 STARLINK-5558,1 55631U 23021D   24114.41973830  .00003390  00000-0  29181-3 0  9994,2 55631  69.9985 132.1766 0002973 268.9326  91.1492 14.98321546 65652,6950.219,96.108,574.15,570.018,0.0
55631.0,STARLINK-5558,PAYLOAD,2024-04-24 05:18:01,14.9835592,0.000298,69.9986,130.1572,268.6315,91.4502,-0.00020579,-2.549e-05,0.0,0 STARLINK-5558,1 55631U 23021D   24115.22084975 -.00002549  00000-0 -20579-3 0  9996,2 55631  69.9986 130.1572 0002980 268.6315  91.4502 14.98355920 65477,6950.113,96.105,574.049,569.907,0.0
55631.0,STARLINK-5558,PAYLOAD,2024-04-24 11:42:33,14.98338071,0.0003355,69.9985,129.4838,270.3983,89.6792,0.00011438,1.272e-05,0.0,0 STARLINK-5558,1 55631U 23021D   24115.48788955  .00001272  00000-0  11438-3 0  9997,2 55631  69.9985 129.4838 0003355 270.3983  89.6792 14.98338071 65513,6950.168,96.106,574.365,569.701,0.0
